{
  "type": "FeatureCollection",
  "features": [
    {
      "type": "Feature",
      "properties": {
        "norad_id": 41330,
        "name": "COSMOS 2514 (751)",
        "group": "glo-ops",
        "lat": 52.00597897784035,
        "lon": 102.58630274877888,
        "alt_km": 19129.286093458755,
        "timestamp": "2025-12-24T09:46:31.265273+00:00",
        "meta_object_name": "COSMOS 2514 (751)",
        "meta_object_id": "2016-008A",
        "meta_epoch": "2025-12-23T18:45:46.770048",
        "meta_mean_motion": 2.13102642,
        "meta_eccentricity": 0.0011634,
        "meta_inclination": 65.1274,
        "meta_ra_of_asc_node": 319.026,
        "meta_arg_of_pericenter": 220.0869,
        "meta_mean_anomaly": 139.8272,
        "meta_ephemeris_type": 0,
        "meta_classification_type": "U",
        "meta_norad_cat_id": 41330,
        "meta_element_set_no": 999,
        "meta_rev_at_epoch": 7688,
        "meta_bstar": 0,
        "meta_mean_motion_dot": -3.5e-07,
        "meta_mean_motion_ddot": 0,
        "tle_line1": "1 41330U 16008A   25357.78179132 -.00000035  00000+0  00000+0 0  9993",
        "tle_line2": "2 41330  65.1274 319.0260 0011634 220.0869 139.8272  2.13102642 76883"
      },
      "geometry": {
        "type": "Point",
        "coordinates": [
          102.58630274877888,
          52.00597897784035
        ]
      }
    },
    {
      "type": "Feature",
      "properties": {
        "norad_id": 42939,
        "name": "COSMOS 2522 (752)",
        "group": "glo-ops",
        "lat": -53.8718633154792,
        "lon": 59.64610875905587,
        "alt_km": 19120.809339077587,
        "timestamp": "2025-12-24T09:46:31.265284+00:00",
        "meta_object_name": "COSMOS 2522 (752)",
        "meta_object_id": "2017-055A",
        "meta_epoch": "2025-12-22T05:05:46.710816",
        "meta_mean_motion": 2.13102066,
        "meta_eccentricity": 0.00062992,
        "meta_inclination": 64.0765,
        "meta_ra_of_asc_node": 197.9063,
        "meta_arg_of_pericenter": 223.6863,
        "meta_mean_anomaly": 136.3303,
        "meta_ephemeris_type": 0,
        "meta_classification_type": "U",
        "meta_norad_cat_id": 42939,
        "meta_element_set_no": 999,
        "meta_rev_at_epoch": 6420,
        "meta_bstar": 0,
        "meta_mean_motion_dot": 9.5e-07,
        "meta_mean_motion_ddot": 0,
        "tle_line1": "1 42939U 17055A   25356.21234619  .00000095  00000+0  00000+0 0  9996",
        "tle_line2": "2 42939  64.0765 197.9063 0006299 223.6863 136.3303  2.13102066 64200"
      },
      "geometry": {
        "type": "Point",
        "coordinates": [
          59.64610875905587,
          -53.8718633154792
        ]
      }
    },
    {
      "type": "Feature",
      "properties": {
        "norad_id": 43508,
        "name": "COSMOS 2527 (756)",
        "group": "glo-ops",
        "lat": -65.20207091323064,
        "lon": -0.8053158370978264,
        "alt_km": 19120.668399457565,
        "timestamp": "2025-12-24T09:46:31.265309+00:00",
        "meta_object_name": "COSMOS 2527 (756)",
        "meta_object_id": "2018-053A",
        "meta_epoch": "2025-12-23T02:40:53.485824",
        "meta_mean_motion": 2.13102391,
        "meta_eccentricity": 0.00089977,
        "meta_inclination": 65.4775,
        "meta_ra_of_asc_node": 79.785,
        "meta_arg_of_pericenter": 227.5336,
        "meta_mean_anomaly": 132.4355,
        "meta_ephemeris_type": 0,
        "meta_classification_type": "U",
        "meta_norad_cat_id": 43508,
        "meta_element_set_no": 999,
        "meta_rev_at_epoch": 5852,
        "meta_bstar": 0,
        "meta_mean_motion_dot": 1e-08,
        "meta_mean_motion_ddot": 0,
        "tle_line1": "1 43508U 18053A   25357.11173016  .00000001  00000+0  00000+0 0  9998",
        "tle_line2": "2 43508  65.4775  79.7850 0008997 227.5336 132.4355  2.13102391 58528"
      },
      "geometry": {
        "type": "Point",
        "coordinates": [
          -0.8053158370978264,
          -65.20207091323064
        ]
      }
    },
    {
      "type": "Feature",
      "properties": {
        "norad_id": 43687,
        "name": "COSMOS 2529 (757)",
        "group": "glo-ops",
        "lat": -17.2017489791179,
        "lon": 27.080009615811058,
        "alt_km": 19122.32980791596,
        "timestamp": "2025-12-24T09:46:31.265322+00:00",
        "meta_object_name": "COSMOS 2529 (757)",
        "meta_object_id": "2018-086A",
        "meta_epoch": "2025-12-23T05:01:04.327104",
        "meta_mean_motion": 2.13102131,
        "meta_eccentricity": 0.0006897,
        "meta_inclination": 64.2927,
        "meta_ra_of_asc_node": 198.5346,
        "meta_arg_of_pericenter": 253.659,
        "meta_mean_anomaly": 106.3281,
        "meta_ephemeris_type": 0,
        "meta_classification_type": "U",
        "meta_norad_cat_id": 43687,
        "meta_element_set_no": 999,
        "meta_rev_at_epoch": 5553,
        "meta_bstar": 0,
        "meta_mean_motion_dot": 9.5e-07,
        "meta_mean_motion_ddot": 0,
        "tle_line1": "1 43687U 18086A   25357.20907786  .00000095  00000+0  00000+0 0  9994",
        "tle_line2": "2 43687  64.2927 198.5346 0006897 253.6590 106.3281  2.13102131 55539"
      },
      "geometry": {
        "type": "Point",
        "coordinates": [
          27.080009615811058,
          -17.2017489791179
        ]
      }
    },
    {
      "type": "Feature",
      "properties": {
        "norad_id": 44299,
        "name": "COSMOS 2534 (758)",
        "group": "glo-ops",
        "lat": -23.56236618058733,
        "lon": -173.5891615720891,
        "alt_km": 19119.181339429368,
        "timestamp": "2025-12-24T09:46:31.265334+00:00",
        "meta_object_name": "COSMOS 2534 (758)",
        "meta_object_id": "2019-030A",
        "meta_epoch": "2025-12-24T03:52:14.937600",
        "meta_mean_motion": 2.13102191,
        "meta_eccentricity": 0.0008597,
        "meta_inclination": 64.3662,
        "meta_ra_of_asc_node": 198.5079,
        "meta_arg_of_pericenter": 283.6548,
        "meta_mean_anomaly": 221.2586,
        "meta_ephemeris_type": 0,
        "meta_classification_type": "U",
        "meta_norad_cat_id": 44299,
        "meta_element_set_no": 999,
        "meta_rev_at_epoch": 5119,
        "meta_bstar": 0,
        "meta_mean_motion_dot": 9.8e-07,
        "meta_mean_motion_ddot": 0,
        "tle_line1": "1 44299U 19030A   25358.16128400  .00000098  00000+0  00000+0 0  9991",
        "tle_line2": "2 44299  64.3662 198.5079 0008597 283.6548 221.2586  2.13102191 51193"
      },
      "geometry": {
        "type": "Point",
        "coordinates": [
          -173.5891615720891,
          -23.56236618058733
        ]
      }
    },
    {
      "type": "Feature",
      "properties": {
        "norad_id": 44850,
        "name": "COSMOS 2544 (759)",
        "group": "glo-ops",
        "lat": -38.82452869808411,
        "lon": 58.05216768681134,
        "alt_km": 19119.966958005683,
        "timestamp": "2025-12-24T09:46:31.265345+00:00",
        "meta_object_name": "COSMOS 2544 (759)",
        "meta_object_id": "2019-088A",
        "meta_epoch": "2025-12-23T01:21:04.162752",
        "meta_mean_motion": 2.13102153,
        "meta_eccentricity": 0.0014323,
        "meta_inclination": 65.465,
        "meta_ra_of_asc_node": 79.6136,
        "meta_arg_of_pericenter": 250.3939,
        "meta_mean_anomaly": 109.4967,
        "meta_ephemeris_type": 0,
        "meta_classification_type": "U",
        "meta_norad_cat_id": 44850,
        "meta_element_set_no": 999,
        "meta_rev_at_epoch": 4696,
        "meta_bstar": 0,
        "meta_mean_motion_dot": 1e-08,
        "meta_mean_motion_ddot": 0,
        "tle_line1": "1 44850U 19088A   25357.05629818  .00000001  00000+0  00000+0 0  9997",
        "tle_line2": "2 44850  65.4650  79.6136 0014323 250.3939 109.4967  2.13102153 46964"
      },
      "geometry": {
        "type": "Point",
        "coordinates": [
          58.05216768681134,
          -38.82452869808411
        ]
      }
    },
    {
      "type": "Feature",
      "properties": {
        "norad_id": 45358,
        "name": "COSMOS 2545 (760)",
        "group": "glo-ops",
        "lat": 12.508755006710471,
        "lon": 132.46118324360864,
        "alt_km": 19125.95912692029,
        "timestamp": "2025-12-24T09:46:31.265356+00:00",
        "meta_object_name": "COSMOS 2545 (760)",
        "meta_object_id": "2020-018A",
        "meta_epoch": "2025-12-23T06:02:53.477376",
        "meta_mean_motion": 2.13102687,
        "meta_eccentricity": 0.00113235,
        "meta_inclination": 64.4634,
        "meta_ra_of_asc_node": 318.6014,
        "meta_arg_of_pericenter": 250.5824,
        "meta_mean_anomaly": 109.2939,
        "meta_ephemeris_type": 0,
        "meta_classification_type": "U",
        "meta_norad_cat_id": 45358,
        "meta_element_set_no": 999,
        "meta_rev_at_epoch": 4491,
        "meta_bstar": 0,
        "meta_mean_motion_dot": -3.7e-07,
        "meta_mean_motion_ddot": 0,
        "tle_line1": "1 45358U 20018A   25357.25200784 -.00000037  00000+0  00000+0 0  9995",
        "tle_line2": "2 45358  64.4634 318.6014 0011323 250.5824 109.2939  2.13102687 44914"
      },
      "geometry": {
        "type": "Point",
        "coordinates": [
          132.46118324360864,
          12.508755006710471
        ]
      }
    }
  ]
}